CCSDS_OMM_VERS = 2.0
CREATION_DATE  = 
ORIGINATOR     = 

OBJECT_NAME    = ALOS (DAICHI)
OBJECT_ID      = 2006-002A
CENTER_NAME    = EARTH
REF_FRAME      = TEME
TIME_SYSTEM    = UTC
MEAN_ELEMENT_THEORY = SGP/SGP4

EPOCH          = 2026-03-01T21:04:40.889856
MEAN_MOTION    = 14.69779356
ECCENTRICITY   = .00012378
INCLINATION    = 98.1205
RA_OF_ASC_NODE = 16.8737
ARG_OF_PERICENTER = 51.4657
MEAN_ANOMALY   = 308.6660

EPHEMERIS_TYPE = 0
CLASSIFICATION_TYPE = U
NORAD_CAT_ID   = 28931
ELEMENT_SET_NO = 999
REV_AT_EPOCH   = 7233
BSTAR          = .28843136E-3
MEAN_MOTION_DOT = .1671E-4
MEAN_MOTION_DDOT = 0

CCSDS_OMM_VERS = 2.0
CREATION_DATE  = 
ORIGINATOR     = 

OBJECT_NAME    = H-2A R/B
OBJECT_ID      = 2006-002B
CENTER_NAME    = EARTH
REF_FRAME      = TEME
TIME_SYSTEM    = UTC
MEAN_ELEMENT_THEORY = SGP/SGP4

EPOCH          = 2026-03-02T03:39:15.875712
MEAN_MOTION    = 15.16223145
ECCENTRICITY   = .0051971
INCLINATION    = 98.2390
RA_OF_ASC_NODE = 207.5297
ARG_OF_PERICENTER = 266.9513
MEAN_ANOMALY   = 92.5770

EPHEMERIS_TYPE = 0
CLASSIFICATION_TYPE = U
NORAD_CAT_ID   = 28932
ELEMENT_SET_NO = 999
REV_AT_EPOCH   = 9329
BSTAR          = .58498E-3
MEAN_MOTION_DOT = .1163E-3
MEAN_MOTION_DDOT = 0

CCSDS_OMM_VERS = 2.0
CREATION_DATE  = 
ORIGINATOR     = 

OBJECT_NAME    = RESURS-DK 1
OBJECT_ID      = 2006-021A
CENTER_NAME    = EARTH
REF_FRAME      = TEME
TIME_SYSTEM    = UTC
MEAN_ELEMENT_THEORY = SGP/SGP4

EPOCH          = 2026-03-01T23:55:56.578368
MEAN_MOTION    = 15.12683952
ECCENTRICITY   = .0002512
INCLINATION    = 69.9303
RA_OF_ASC_NODE = 256.9230
ARG_OF_PERICENTER = 166.1423
MEAN_ANOMALY   = 193.9812

EPHEMERIS_TYPE = 0
CLASSIFICATION_TYPE = U
NORAD_CAT_ID   = 29228
ELEMENT_SET_NO = 999
REV_AT_EPOCH   = 8636
BSTAR          = .17781E-3
MEAN_MOTION_DOT = .3012E-4
MEAN_MOTION_DDOT = 0

CCSDS_OMM_VERS = 2.0
CREATION_DATE  = 
ORIGINATOR     = 

OBJECT_NAME    = CZ-4B R/B
OBJECT_ID      = 2006-046C
CENTER_NAME    = EARTH
REF_FRAME      = TEME
TIME_SYSTEM    = UTC
MEAN_ELEMENT_THEORY = SGP/SGP4

EPOCH          = 2026-03-02T02:08:01.435200
MEAN_MOTION    = 15.16809032
ECCENTRICITY   = .0031859
INCLINATION    = 97.5610
RA_OF_ASC_NODE = 106.0180
ARG_OF_PERICENTER = 295.0382
MEAN_ANOMALY   = 64.7544

EPHEMERIS_TYPE = 0
CLASSIFICATION_TYPE = U
NORAD_CAT_ID   = 29507
ELEMENT_SET_NO = 999
REV_AT_EPOCH   = 5889
BSTAR          = .26684E-3
MEAN_MOTION_DOT = .5241E-4
MEAN_MOTION_DDOT = 0

CCSDS_OMM_VERS = 2.0
CREATION_DATE  = 
ORIGINATOR     = 

OBJECT_NAME    = CZ-2C R/B
OBJECT_ID      = 2007-010B
CENTER_NAME    = EARTH
REF_FRAME      = TEME
TIME_SYSTEM    = UTC
MEAN_ELEMENT_THEORY = SGP/SGP4

EPOCH          = 2026-03-02T01:07:25.223808
MEAN_MOTION    = 14.20242948
ECCENTRICITY   = .005811
INCLINATION    = 98.3976
RA_OF_ASC_NODE = 174.7090
ARG_OF_PERICENTER = 317.2375
MEAN_ANOMALY   = 42.4289

EPHEMERIS_TYPE = 0
CLASSIFICATION_TYPE = U
NORAD_CAT_ID   = 31114
ELEMENT_SET_NO = 999
REV_AT_EPOCH   = 97863
BSTAR          = .79904E-4
MEAN_MOTION_DOT = .132E-5
MEAN_MOTION_DDOT = 0

CCSDS_OMM_VERS = 2.0
CREATION_DATE  = 
ORIGINATOR     = 

OBJECT_NAME    = COSMO-SKYMED 1
OBJECT_ID      = 2007-023A
CENTER_NAME    = EARTH
REF_FRAME      = TEME
TIME_SYSTEM    = UTC
MEAN_ELEMENT_THEORY = SGP/SGP4

EPOCH          = 2026-03-02T04:13:01.288704
MEAN_MOTION    = 14.96463875
ECCENTRICITY   = .0000873
INCLINATION    = 97.8866
RA_OF_ASC_NODE = 252.1483
ARG_OF_PERICENTER = 83.9544
MEAN_ANOMALY   = 276.1776

EPHEMERIS_TYPE = 0
CLASSIFICATION_TYPE = U
NORAD_CAT_ID   = 31598
ELEMENT_SET_NO = 999
REV_AT_EPOCH   = 1378
BSTAR          = .31627E-3
MEAN_MOTION_DOT = .353E-4
MEAN_MOTION_DDOT = 0

CCSDS_OMM_VERS = 2.0
CREATION_DATE  = 
ORIGINATOR     = 

OBJECT_NAME    = COSMOS 2428
OBJECT_ID      = 2007-029A
CENTER_NAME    = EARTH
REF_FRAME      = TEME
TIME_SYSTEM    = UTC
MEAN_ELEMENT_THEORY = SGP/SGP4

EPOCH          = 2026-03-01T21:19:56.857728
MEAN_MOTION    = 14.12943981
ECCENTRICITY   = .0008667
INCLINATION    = 70.9418
RA_OF_ASC_NODE = 219.7167
ARG_OF_PERICENTER = 285.4895
MEAN_ANOMALY   = 74.5269

EPHEMERIS_TYPE = 0
CLASSIFICATION_TYPE = U
NORAD_CAT_ID   = 31792
ELEMENT_SET_NO = 999
REV_AT_EPOCH   = 96299
BSTAR          = .76733E-4
MEAN_MOTION_DOT = .95E-6
MEAN_MOTION_DDOT = 0

CCSDS_OMM_VERS = 2.0
CREATION_DATE  = 
ORIGINATOR     = 

OBJECT_NAME    = SL-16 R/B
OBJECT_ID      = 2007-029B
CENTER_NAME    = EARTH
REF_FRAME      = TEME
TIME_SYSTEM    = UTC
MEAN_ELEMENT_THEORY = SGP/SGP4

EPOCH          = 2026-03-02T02:11:41.621280
MEAN_MOTION    = 14.14834234
ECCENTRICITY   = .0002429
INCLINATION    = 70.9755
RA_OF_ASC_NODE = 188.3552
ARG_OF_PERICENTER = 278.6811
MEAN_ANOMALY   = 254.7242

EPHEMERIS_TYPE = 0
CLASSIFICATION_TYPE = U
NORAD_CAT_ID   = 31793
ELEMENT_SET_NO = 999
REV_AT_EPOCH   = 96429
BSTAR          = -.8406E-4
MEAN_MOTION_DOT = -.21E-5
MEAN_MOTION_DDOT = 0

CCSDS_OMM_VERS = 2.0
CREATION_DATE  = 
ORIGINATOR     = 

OBJECT_NAME    = KORONAS-FOTON
OBJECT_ID      = 2009-003A
CENTER_NAME    = EARTH
REF_FRAME      = TEME
TIME_SYSTEM    = UTC
MEAN_ELEMENT_THEORY = SGP/SGP4

EPOCH          = 2026-03-02T02:42:39.820896
MEAN_MOTION    = 15.43103444
ECCENTRICITY   = .0010633
INCLINATION    = 82.4285
RA_OF_ASC_NODE = 283.7555
ARG_OF_PERICENTER = 175.5280
MEAN_ANOMALY   = 184.6064

EPHEMERIS_TYPE = 0
CLASSIFICATION_TYPE = U
NORAD_CAT_ID   = 33504
ELEMENT_SET_NO = 999
REV_AT_EPOCH   = 94457
BSTAR          = .28173E-3
MEAN_MOTION_DOT = .12521E-3
MEAN_MOTION_DDOT = 0

CCSDS_OMM_VERS = 2.0
CREATION_DATE  = 
ORIGINATOR     = 

OBJECT_NAME    = CZ-2C R/B
OBJECT_ID      = 2011-030B
CENTER_NAME    = EARTH
REF_FRAME      = TEME
TIME_SYSTEM    = UTC
MEAN_ELEMENT_THEORY = SGP/SGP4

EPOCH          = 2026-03-01T21:52:45.539616
MEAN_MOTION    = 14.81184681
ECCENTRICITY   = .0053174
INCLINATION    = 97.8528
RA_OF_ASC_NODE = 18.3315
ARG_OF_PERICENTER = 17.3023
MEAN_ANOMALY   = 48.4165

EPHEMERIS_TYPE = 0
CLASSIFICATION_TYPE = U
NORAD_CAT_ID   = 37731
ELEMENT_SET_NO = 999
REV_AT_EPOCH   = 78894
BSTAR          = .25939E-3
MEAN_MOTION_DOT = .2013E-4
MEAN_MOTION_DDOT = 0

CCSDS_OMM_VERS = 2.0
CREATION_DATE  = 
ORIGINATOR     = 

OBJECT_NAME    = H-2A R/B
OBJECT_ID      = 2012-025E
CENTER_NAME    = EARTH
REF_FRAME      = TEME
TIME_SYSTEM    = UTC
MEAN_ELEMENT_THEORY = SGP/SGP4

EPOCH          = 2026-03-02T03:59:15.213984
MEAN_MOTION    = 14.95085795
ECCENTRICITY   = .0044084
INCLINATION    = 98.4708
RA_OF_ASC_NODE = 27.6108
ARG_OF_PERICENTER = 339.1199
MEAN_ANOMALY   = 20.8217

EPHEMERIS_TYPE = 0
CLASSIFICATION_TYPE = U
NORAD_CAT_ID   = 38341
ELEMENT_SET_NO = 999
REV_AT_EPOCH   = 74709
BSTAR          = .43406E-3
MEAN_MOTION_DOT = .478E-4
MEAN_MOTION_DDOT = 0

CCSDS_OMM_VERS = 2.0
CREATION_DATE  = 
ORIGINATOR     = 

OBJECT_NAME    = SHIJIAN-16 (SJ-16)
OBJECT_ID      = 2013-057A
CENTER_NAME    = EARTH
REF_FRAME      = TEME
TIME_SYSTEM    = UTC
MEAN_ELEMENT_THEORY = SGP/SGP4

EPOCH          = 2026-03-02T04:30:09.078912
MEAN_MOTION    = 14.92297580
ECCENTRICITY   = .0015847
INCLINATION    = 74.9716
RA_OF_ASC_NODE = 199.2889
ARG_OF_PERICENTER = 131.9586
MEAN_ANOMALY   = 228.2955

EPHEMERIS_TYPE = 0
CLASSIFICATION_TYPE = U
NORAD_CAT_ID   = 39358
ELEMENT_SET_NO = 999
REV_AT_EPOCH   = 67038
BSTAR          = .16767E-3
MEAN_MOTION_DOT = .1688E-4
MEAN_MOTION_DDOT = 0

