ALOS (DAICHI)           
1 28931U 06002A   26060.87825104  .00001671  00000+0  28843-3 0  9992
2 28931  98.1205  16.8737 0001237  51.4657 308.6660 14.69779356 72334
H-2A R/B                
1 28932U 06002B   26061.15226708  .00011630  00000+0  58498-3 0  9995
2 28932  98.2390 207.5297 0051971 266.9513  92.5770 15.16223145 93297
RESURS-DK 1             
1 29228U 06021A   26060.99718262  .00003012  00000+0  17781-3 0  9992
2 29228  69.9303 256.9230 0002512 166.1423 193.9812 15.12683952 86363
CZ-4B R/B               
1 29507U 06046C   26061.08890550  .00005241  00000+0  26684-3 0  9999
2 29507  97.5610 106.0180 0031859 295.0382  64.7544 15.16809032 58899
CZ-2C R/B               
1 31114U 07010B   26061.04681972  .00000132  00000+0  79904-4 0  9998
2 31114  98.3976 174.7090 0058110 317.2375  42.4289 14.20242948978633
COSMO-SKYMED 1          
1 31598U 07023A   26061.17570936  .00003530  00000+0  31627-3 0  9993
2 31598  97.8866 252.1483 0000873  83.9544 276.1776 14.96463875 13786
COSMOS 2428             
1 31792U 07029A   26060.88885252  .00000095  00000+0  76733-4 0  9993
2 31792  70.9418 219.7167 0008667 285.4895  74.5269 14.12943981962994
SL-16 R/B               
1 31793U 07029B   26061.09145395 -.00000210  00000+0 -84060-4 0  9998
2 31793  70.9755 188.3552 0002429 278.6811 254.7242 14.14834234964290
KORONAS-FOTON           
1 33504U 09003A   26061.11296089  .00012521  00000+0  28173-3 0  9992
2 33504  82.4285 283.7555 0010633 175.5280 184.6064 15.43103444944579
CZ-2C R/B               
1 37731U 11030B   26060.91163819  .00002013  00000+0  25939-3 0  9994
2 37731  97.8528  18.3315 0053174  17.3023  48.4165 14.81184681788945
H-2A R/B                
1 38341U 12025E   26061.16614831  .00004780  00000+0  43406-3 0  9992
2 38341  98.4708  27.6108 0044084 339.1199  20.8217 14.95085795747096
SHIJIAN-16 (SJ-16)      
1 39358U 13057A   26061.18760508  .00001688  00000+0  16767-3 0  9996
2 39358  74.9716 199.2889 0015847 131.9586 228.2955 14.92297580670382
